[
    {
        "OBJECT_NAME": "SHIJIAN-16 (SJ-16)",
        "OBJECT_ID": "2013-057A",
        "EPOCH": "2026-06-27T19:54:42.567840",
        "MEAN_MOTION": 14.92622307,
        "ECCENTRICITY": 0.00165,
        "INCLINATION": 74.9729,
        "RA_OF_ASC_NODE": 336.525,
        "ARG_OF_PERICENTER": 206.0182,
        "MEAN_ANOMALY": 154.0179,
        "EPHEMERIS_TYPE": 0,
        "CLASSIFICATION_TYPE": "U",
        "NORAD_CAT_ID": 39358,
        "ELEMENT_SET_NO": 999,
        "REV_AT_EPOCH": 68793,
        "BSTAR": 7.4977e-05,
        "MEAN_MOTION_DOT": 7.44e-06,
        "MEAN_MOTION_DDOT": 0
    },
    {
        "OBJECT_NAME": "ALOS-2",
        "OBJECT_ID": "2014-029A",
        "EPOCH": "2026-06-27T19:48:14.135904",
        "MEAN_MOTION": 14.79468688,
        "ECCENTRICITY": 0.000159,
        "INCLINATION": 97.9223,
        "RA_OF_ASC_NODE": 275.8366,
        "ARG_OF_PERICENTER": 89.7982,
        "MEAN_ANOMALY": 270.3411,
        "EPHEMERIS_TYPE": 0,
        "CLASSIFICATION_TYPE": "U",
        "NORAD_CAT_ID": 39766,
        "ELEMENT_SET_NO": 999,
        "REV_AT_EPOCH": 65315,
        "BSTAR": 0.00022475,
        "MEAN_MOTION_DOT": 1.627e-05,
        "MEAN_MOTION_DDOT": 0
    },
    {
        "OBJECT_NAME": "YAOGAN-29",
        "OBJECT_ID": "2015-069A",
        "EPOCH": "2026-06-27T20:06:20.877696",
        "MEAN_MOTION": 14.83093586,
        "ECCENTRICITY": 0.0002,
        "INCLINATION": 98.0028,
        "RA_OF_ASC_NODE": 207.487,
        "ARG_OF_PERICENTER": 38.7465,
        "MEAN_ANOMALY": 321.3892,
        "EPHEMERIS_TYPE": 0,
        "CLASSIFICATION_TYPE": "U",
        "NORAD_CAT_ID": 41038,
        "ELEMENT_SET_NO": 999,
        "REV_AT_EPOCH": 57220,
        "BSTAR": 8.2993e-05,
        "MEAN_MOTION_DOT": 6.22e-06,
        "MEAN_MOTION_DDOT": 0
    },
    {
        "OBJECT_NAME": "HXMT (HUIYAN)",
        "OBJECT_ID": "2017-034A",
        "EPOCH": "2026-06-27T20:32:40.802784",
        "MEAN_MOTION": 15.18548503,
        "ECCENTRICITY": 0.0032216,
        "INCLINATION": 43.0136,
        "RA_OF_ASC_NODE": 123.6296,
        "ARG_OF_PERICENTER": 214.8928,
        "MEAN_ANOMALY": 144.9809,
        "EPHEMERIS_TYPE": 0,
        "CLASSIFICATION_TYPE": "U",
        "NORAD_CAT_ID": 42758,
        "ELEMENT_SET_NO": 999,
        "REV_AT_EPOCH": 49928,
        "BSTAR": 0.00022392,
        "MEAN_MOTION_DOT": 4.53e-05,
        "MEAN_MOTION_DDOT": 0
    },
    {
        "OBJECT_NAME": "SAOCOM 1A",
        "OBJECT_ID": "2018-076A",
        "EPOCH": "2026-06-27T19:15:55.266336",
        "MEAN_MOTION": 14.82155639,
        "ECCENTRICITY": 0.0001558,
        "INCLINATION": 97.8884,
        "RA_OF_ASC_NODE": 5.3971,
        "ARG_OF_PERICENTER": 81.3134,
        "MEAN_ANOMALY": 278.8256,
        "EPHEMERIS_TYPE": 0,
        "CLASSIFICATION_TYPE": "U",
        "NORAD_CAT_ID": 43641,
        "ELEMENT_SET_NO": 999,
        "REV_AT_EPOCH": 41767,
        "BSTAR": 7.0666e-05,
        "MEAN_MOTION_DOT": 5.1e-06,
        "MEAN_MOTION_DDOT": 0
    },
    {
        "OBJECT_NAME": "SAOCOM 1B",
        "OBJECT_ID": "2020-059A",
        "EPOCH": "2026-06-27T20:00:48.935808",
        "MEAN_MOTION": 14.82148211,
        "ECCENTRICITY": 0.0001635,
        "INCLINATION": 97.8888,
        "RA_OF_ASC_NODE": 4.5236,
        "ARG_OF_PERICENTER": 82.0325,
        "MEAN_ANOMALY": 278.1074,
        "EPHEMERIS_TYPE": 0,
        "CLASSIFICATION_TYPE": "U",
        "NORAD_CAT_ID": 46265,
        "ELEMENT_SET_NO": 999,
        "REV_AT_EPOCH": 31506,
        "BSTAR": 9.3385e-05,
        "MEAN_MOTION_DOT": 6.91e-06,
        "MEAN_MOTION_DDOT": 0
    },
    {
        "OBJECT_NAME": "CSS (TIANHE)",
        "OBJECT_ID": "2021-035A",
        "EPOCH": "2026-06-27T15:52:08.232096",
        "MEAN_MOTION": 15.61265155,
        "ECCENTRICITY": 0.0008146,
        "INCLINATION": 41.4688,
        "RA_OF_ASC_NODE": 258.2408,
        "ARG_OF_PERICENTER": 165.3212,
        "MEAN_ANOMALY": 194.7865,
        "EPHEMERIS_TYPE": 0,
        "CLASSIFICATION_TYPE": "U",
        "NORAD_CAT_ID": 48274,
        "ELEMENT_SET_NO": 999,
        "REV_AT_EPOCH": 29480,
        "BSTAR": 0.00024566,
        "MEAN_MOTION_DOT": 0.00021196,
        "MEAN_MOTION_DDOT": 0
    },
    {
        "OBJECT_NAME": "COSMOS 2550",
        "OBJECT_ID": "2021-056A",
        "EPOCH": "2026-06-27T20:21:53.456832",
        "MEAN_MOTION": 15.33811767,
        "ECCENTRICITY": 0.0008336,
        "INCLINATION": 67.1438,
        "RA_OF_ASC_NODE": 67.6564,
        "ARG_OF_PERICENTER": 269.4676,
        "MEAN_ANOMALY": 90.5523,
        "EPHEMERIS_TYPE": 0,
        "CLASSIFICATION_TYPE": "U",
        "NORAD_CAT_ID": 48865,
        "ELEMENT_SET_NO": 999,
        "REV_AT_EPOCH": 28035,
        "BSTAR": 0.00016099,
        "MEAN_MOTION_DOT": 5.105e-05,
        "MEAN_MOTION_DDOT": 0
    }
]