SHIJIAN-16 (SJ-16)      
1 39358U 13057A   26178.82965935  .00000744  00000+0  74977-4 0  9997
2 39358  74.9729 336.5250 0016500 206.0182 154.0179 14.92622307687939
ALOS-2                  
1 39766U 14029A   26178.82516361  .00001627  00000+0  22475-3 0  9991
2 39766  97.9223 275.8366 0001590  89.7982 270.3411 14.79468688653159
YAOGAN-29               
1 41038U 15069A   26178.83774164  .00000622  00000+0  82993-4 0  9995
2 41038  98.0028 207.4870 0002000  38.7465 321.3892 14.83093586572209
HXMT (HUIYAN)           
1 42758U 17034A   26178.85602781  .00004530  00000+0  22392-3 0  9994
2 42758  43.0136 123.6296 0032216 214.8928 144.9809 15.18548503499289
SAOCOM 1A               
1 43641U 18076A   26178.80272299  .00000510  00000+0  70666-4 0  9997
2 43641  97.8884   5.3971 0001558  81.3134 278.8256 14.82155639417675
SAOCOM 1B               
1 46265U 20059A   26178.83389972  .00000691  00000+0  93385-4 0  9999
2 46265  97.8888   4.5236 0001635  82.0325 278.1074 14.82148211315064
CSS (TIANHE)            
1 48274U 21035A   26178.66120639  .00021196  00000+0  24566-3 0  9997
2 48274  41.4688 258.2408 0008146 165.3212 194.7865 15.61265155294806
COSMOS 2550             
1 48865U 21056A   26178.84853538  .00005105  00000+0  16099-3 0  9991
2 48865  67.1438  67.6564 0008336 269.4676  90.5523 15.33811767280350
